IRIDIUM 112             
1 41925U 17003J   25169.91863784  .00000074  00000+0  19285-4 0  9990
2 41925  86.3970 240.0446 0002296  97.4355 262.7102 14.34217582441206
IRIDIUM 111             
1 41926U 17003K   25169.90595262  .00000142  00000+0  43794-4 0  9991
2 41926  86.3971 240.1123 0002416  91.2242 268.9230 14.34217968441187
IRIDIUM 113             
1 42803U 17039A   25169.60684349  .00000026  00000+0  22759-5 0  9997
2 42803  86.3973 114.1661 0002391  91.0045 269.1424 14.34217612419079
IRIDIUM 123             
1 42804U 17039B   25169.64832217  .00000037  00000+0  60603-5 0  9993
2 42804  86.3985 145.6077 0002567  81.8478 278.3008 14.34217584417846
IRIDIUM 120             
1 42805U 17039C   25169.60050078  .00000221  00000+0  71772-4 0  9990
2 42805  86.3961 113.9983 0002268  76.2973 283.8476 14.34217634419063
IRIDIUM 115             
1 42806U 17039D   25169.75564647  .00000212  00000+0  57166-4 0  9990
2 42806  86.4499 114.0122 0002960  75.1487 285.0042 14.43278111421844
IRIDIUM 118             
1 42807U 17039E   25169.68003406  .00000002  00000+0 -64556-5 0  9994
2 42807  86.3988 145.5941 0002138  89.2638 270.8803 14.34216898417842
IRIDIUM 117             
1 42808U 17039F   25169.62929387  .00000109  00000+0  31736-4 0  9994
2 42808  86.3981 145.5764 0002614  86.1764 273.9730 14.34217353417866
